start=new Date('2022-05-07T00:00:00.000Z').valueOf();
sats=[{"MEAN_ANOMALY":"306.2935","OBJECT_TYPE":"PAYLOAD","GP_ID":"202869111","ECCENTRICITY":"0.00016210","SEMIMAJOR_AXIS":"6925.375","CENTER_NAME":"EARTH","MEAN_MOTION":"15.06391304","REF_FRAME":"TEME","SITE":"AFETR","ELEMENT_SET_NO":"999","EPOCH":"2022-05-06T10:17:59.894016","TLE_LINE2":"2 44757  53.0560  26.1030 0001621  53.8204 306.2935 15.06391304137137","FILE":"3432423","MEAN_MOTION_DOT":"-0.00000447","MEAN_MOTION_DDOT":"0.0000000000000","OBJECT_ID":"2019-074AW","NORAD_CAT_ID":"44757","TLE_LINE1":"1 44757U 19074AW  22126.42916544 -.00000447  00000-0 -11143-4 0  9997","MEAN_ELEMENT_THEORY":"SGP4","APOAPSIS":"548.363","TIME_SYSTEM":"UTC","PERIAPSIS":"546.118","ARG_OF_PERICENTER":"53.8204","COUNTRY_CODE":"US","DECAY_DATE":null,"REV_AT_EPOCH":"13713","INCLINATION":"53.0560","EPHEMERIS_TYPE":"0","PERIOD":"95.593","OBJECT_NAME":"STARLINK-1052","RCS_SIZE":"LARGE","CLASSIFICATION_TYPE":"U","RA_OF_ASC_NODE":"26.1030","LAUNCH_DATE":"2019-11-11","BSTAR":"-0.00001114300000"},{"FILE":"3432208","EPOCH":"2022-05-06T12:05:26.104704","TLE_LINE2":"2 44758  53.0556  45.7751 0001615  62.2097 297.9055 15.06401953136700","SITE":"AFETR","ELEMENT_SET_NO":"999","REF_FRAME":"TEME","SEMIMAJOR_AXIS":"6925.343","ECCENTRICITY":"0.00016150","GP_ID":"202858941","MEAN_MOTION":"15.06401953","CENTER_NAME":"EARTH","MEAN_ANOMALY":"297.9055","OBJECT_TYPE":"PAYLOAD","RCS_SIZE":"LARGE","CLASSIFICATION_TYPE":"U","OBJECT_NAME":"STARLINK-1053","BSTAR":"-0.00002975100000","LAUNCH_DATE":"2019-11-11","RA_OF_ASC_NODE":"45.7751","PERIOD":"95.592","EPHEMERIS_TYPE":"0","INCLINATION":"53.0556","DECAY_DATE":null,"COUNTRY_CODE":"US","REV_AT_EPOCH":"13670","APOAPSIS":"548.326","TIME_SYSTEM":"UTC","MEAN_ELEMENT_THEORY":"SGP4","TLE_LINE1":"1 44758U 19074AX  22126.50377436 -.00000725  00000-0 -29751-4 0  9991","NORAD_CAT_ID":"44758","MEAN_MOTION_DDOT":"0.0000000000000","MEAN_MOTION_DOT":"-0.00000725","OBJECT_ID":"2019-074AX","ARG_OF_PERICENTER":"62.2097","PERIAPSIS":"546.089"},{"PERIAPSIS":"546.216","ARG_OF_PERICENTER":"66.9533","MEAN_MOTION_DDOT":"0.0000000000000","MEAN_MOTION_DOT":"0.00000075","NORAD_CAT_ID":"44759","OBJECT_ID":"2019-074AY","TLE_LINE1":"1 44759U 19074AY  22126.49366069  .00000075  00000-0  23914-4 0  9991","MEAN_ELEMENT_THEORY":"SGP4","TIME_SYSTEM":"UTC","APOAPSIS":"548.220","REV_AT_EPOCH":"13434","COUNTRY_CODE":"US","DECAY_DATE":null,"INCLINATION":"53.0550","EPHEMERIS_TYPE":"0","PERIOD":"95.592","RA_OF_ASC_NODE":"45.8089","LAUNCH_DATE":"2019-11-11","BSTAR":"0.00002391400000","OBJECT_NAME":"STARLINK-1054","RCS_SIZE":"LARGE","CLASSIFICATION_TYPE":"U","OBJECT_TYPE":"PAYLOAD","MEAN_ANOMALY":"293.1609","CENTER_NAME":"EARTH","MEAN_MOTION":"15.06398590","GP_ID":"202859690","ECCENTRICITY":"0.00014470","SEMIMAJOR_AXIS":"6925.353","REF_FRAME":"TEME","ELEMENT_SET_NO":"999","SITE":"AFETR","EPOCH":"2022-05-06T11:50:52.283616","TLE_LINE2":"2 44759  53.0550  45.8089 0001447  66.9533 293.1609 15.06398590134342","FILE":"3432208"},{"MEAN_MOTION":"15.06399794","CENTER_NAME":"EARTH","ECCENTRICITY":"0.00017690","GP_ID":"202869169","SEMIMAJOR_AXIS":"6925.349","OBJECT_TYPE":"PAYLOAD","MEAN_ANOMALY":"311.9485","FILE":"3432429","REF_FRAME":"TEME","EPOCH":"2022-05-06T17:51:47.591712","TLE_LINE2":"2 44760  53.0572  44.6850 0001769  48.1655 311.9485 15.06399794136918","ELEMENT_SET_NO":"999","SITE":"AFETR","REV_AT_EPOCH":"13691","DECAY_DATE":null,"COUNTRY_CODE":"US","PERIAPSIS":"545.989","ARG_OF_PERICENTER":"48.1655","TLE_LINE1":"1 44760U 19074AZ  22126.74430083 -.00001860  00000-0 -10599-3 0  9998","MEAN_MOTION_DOT":"-0.00001860","MEAN_MOTION_DDOT":"0.0000000000000","NORAD_CAT_ID":"44760","OBJECT_ID":"2019-074AZ","TIME_SYSTEM":"UTC","APOAPSIS":"548.439","MEAN_ELEMENT_THEORY":"SGP4","LAUNCH_DATE":"2019-11-11","RA_OF_ASC_NODE":"44.6850","BSTAR":"-0.00010599000000","OBJECT_NAME":"STARLINK-1055","CLASSIFICATION_TYPE":"U","RCS_SIZE":"LARGE","INCLINATION":"53.0572","PERIOD":"95.592","EPHEMERIS_TYPE":"0"},{"MEAN_MOTION":"15.06393882","CENTER_NAME":"EARTH","ECCENTRICITY":"0.00016160","GP_ID":"202858689","SEMIMAJOR_AXIS":"6925.367","OBJECT_TYPE":"PAYLOAD","MEAN_ANOMALY":"301.0598","FILE":"3432208","REF_FRAME":"TEME","TLE_LINE2":"2 44761  53.0561  45.8268 0001616  59.0550 301.0598 15.06393882136703","EPOCH":"2022-05-06T11:45:34.125984","SITE":"AFETR","ELEMENT_SET_NO":"999","REV_AT_EPOCH":"13670","DECAY_DATE":null,"COUNTRY_CODE":"US","PERIAPSIS":"546.113","ARG_OF_PERICENTER":"59.0550","TLE_LINE1":"1 44761U 19074BA  22126.48997831 -.00001960  00000-0 -11271-3 0  9998","OBJECT_ID":"2019-074BA","MEAN_MOTION_DDOT":"0.0000000000000","MEAN_MOTION_DOT":"-0.00001960","NORAD_CAT_ID":"44761","APOAPSIS":"548.351","TIME_SYSTEM":"UTC","MEAN_ELEMENT_THEORY":"SGP4","LAUNCH_DATE":"2019-11-11","RA_OF_ASC_NODE":"45.8268","BSTAR":"-0.00011271000000","OBJECT_NAME":"STARLINK-1056","CLASSIFICATION_TYPE":"U","RCS_SIZE":"LARGE","INCLINATION":"53.0561","PERIOD":"95.593","EPHEMERIS_TYPE":"0"},{"DECAY_DATE":null,"COUNTRY_CODE":"US","REV_AT_EPOCH":"13691","TLE_LINE1":"1 44762U 19074BB  22126.09374090  .00000010  00000-0  19572-4 0  9998","MEAN_MOTION_DDOT":"0.0000000000000","OBJECT_ID":"2019-074BB","MEAN_MOTION_DOT":"0.00000010","NORAD_CAT_ID":"44762","TIME_SYSTEM":"UTC","APOAPSIS":"548.372","MEAN_ELEMENT_THEORY":"SGP4","PERIAPSIS":"546.066","ARG_OF_PERICENTER":"54.1335","OBJECT_NAME":"STARLINK-1057","CLASSIFICATION_TYPE":"U","RCS_SIZE":"LARGE","LAUNCH_DATE":"2019-11-11","RA_OF_ASC_NODE":"27.5963","BSTAR":"0.00001957200000","INCLINATION":"53.0575","PERIOD":"95.592","EPHEMERIS_TYPE":"0","ECCENTRICITY":"0.00016650","GP_ID":"202858441","SEMIMAJOR_AXIS":"6925.354","MEAN_MOTION":"15.06398268","CENTER_NAME":"EARTH","MEAN_ANOMALY":"305.9808","OBJECT_TYPE":"PAYLOAD","FILE":"3432208","REF_FRAME":"TEME","EPOCH":"2022-05-06T02:14:59.213760","TLE_LINE2":"2 44762  53.0575  27.5963 0001665  54.1335 305.9808 15.06398268136912","ELEMENT_SET_NO":"999","SITE":"AFETR"},{"FILE":"3432208","REF_FRAME":"TEME","EPOCH":"2022-05-06T04:19:42.980448","TLE_LINE2":"2 44763  53.0545  47.2305 0001645  57.1690 302.9458 15.06395760136657","ELEMENT_SET_NO":"999","SITE":"AFETR","MEAN_MOTION":"15.06395760","CENTER_NAME":"EARTH","ECCENTRICITY":"0.00016450","GP_ID":"202859190","SEMIMAJOR_AXIS":"6925.362","OBJECT_TYPE":"PAYLOAD","MEAN_ANOMALY":"302.9458","LAUNCH_DATE":"2019-11-11","RA_OF_ASC_NODE":"47.2305","BSTAR":"-0.00003208800000","OBJECT_NAME":"STARLINK-1058","RCS_SIZE":"LARGE","CLASSIFICATION_TYPE":"U","INCLINATION":"53.0545","PERIOD":"95.592","EPHEMERIS_TYPE":"0","REV_AT_EPOCH":"13665","DECAY_DATE":null,"COUNTRY_CODE":"US","PERIAPSIS":"546.087","ARG_OF_PERICENTER":"57.1690","TLE_LINE1":"1 44763U 19074BC  22126.18035857 -.00000759  00000-0 -32088-4 0  9993","MEAN_MOTION_DOT":"-0.00000759","MEAN_MOTION_DDOT":"0.0000000000000","OBJECT_ID":"2019-074BC","NORAD_CAT_ID":"44763","APOAPSIS":"548.366","TIME_SYSTEM":"UTC","MEAN_ELEMENT_THEORY":"SGP4"},{"PERIOD":"95.592","EPHEMERIS_TYPE":"0","INCLINATION":"53.0572","BSTAR":"0.00000979880000","LAUNCH_DATE":"2019-11-11","RA_OF_ASC_NODE":"27.3319","RCS_SIZE":"LARGE","CLASSIFICATION_TYPE":"U","OBJECT_NAME":"STARLINK-1059","ARG_OF_PERICENTER":"56.6281","PERIAPSIS":"545.964","APOAPSIS":"548.465","TIME_SYSTEM":"UTC","MEAN_ELEMENT_THEORY":"SGP4","TLE_LINE1":"1 44764U 19074BD  22126.15639989 -.00000136  00000-0  97988-5 0  9996","MEAN_MOTION_DOT":"-0.00000136","MEAN_MOTION_DDOT":"0.0000000000000","NORAD_CAT_ID":"44764","OBJECT_ID":"2019-074BD","REV_AT_EPOCH":"13692","DECAY_DATE":null,"COUNTRY_CODE":"US","EPOCH":"2022-05-06T03:45:12.950496","TLE_LINE2":"2 44764  53.0572  27.3319 0001806  56.6281 303.4881 15.06399775136927","SITE":"AFETR","ELEMENT_SET_NO":"999","REF_FRAME":"TEME","FILE":"3432208","OBJECT_TYPE":"PAYLOAD","MEAN_ANOMALY":"303.4881","MEAN_MOTION":"15.06399775","CENTER_NAME":"EARTH","SEMIMAJOR_AXIS":"6925.349","ECCENTRICITY":"0.00018060","GP_ID":"202859916"},{"FILE":"3432208","REF_FRAME":"TEME","EPOCH":"2022-05-06T10:33:54.653760","TLE_LINE2":"2 44765  53.0559  26.0420 0001520  72.8555 287.2600 15.06398042136967","ELEMENT_SET_NO":"999","SITE":"AFETR","ECCENTRICITY":"0.00015200","GP_ID":"202858189","SEMIMAJOR_AXIS":"6925.355","MEAN_MOTION":"15.06398042","CENTER_NAME":"EARTH","MEAN_ANOMALY":"287.2600","OBJECT_TYPE":"PAYLOAD","OBJECT_NAME":"STARLINK-1060","RCS_SIZE":"LARGE","CLASSIFICATION_TYPE":"U","LAUNCH_DATE":"2019-11-11","RA_OF_ASC_NODE":"26.0420","BSTAR":"0.00008683900000","INCLINATION":"53.0559","PERIOD":"95.592","EPHEMERIS_TYPE":"0","DECAY_DATE":null,"COUNTRY_CODE":"US","REV_AT_EPOCH":"13696","TLE_LINE1":"1 44765U 19074BE  22126.44021590  .00001012  00000-0  86839-4 0  9997","MEAN_MOTION_DDOT":"0.0000000000000","NORAD_CAT_ID":"44765","MEAN_MOTION_DOT":"0.00001012","OBJECT_ID":"2019-074BE","TIME_SYSTEM":"UTC","APOAPSIS":"548.272","MEAN_ELEMENT_THEORY":"SGP4","PERIAPSIS":"546.167","ARG_OF_PERICENTER":"72.8555"},{"ARG_OF_PERICENTER":"71.8596","PERIAPSIS":"546.209","MEAN_ELEMENT_THEORY":"SGP4","APOAPSIS":"548.172","TIME_SYSTEM":"UTC","MEAN_MOTION_DDOT":"0.0000000000000","MEAN_MOTION_DOT":"0.00000112","NORAD_CAT_ID":"44766","OBJECT_ID":"2019-074BF","TLE_LINE1":"1 44766U 19074BF  22126.50471228  .00000112  00000-0  26426-4 0  9998","REV_AT_EPOCH":"13670","COUNTRY_CODE":"US","DECAY_DATE":null,"EPHEMERIS_TYPE":"0","PERIOD":"95.592","INCLINATION":"53.0576","BSTAR":"0.00002642600000","RA_OF_ASC_NODE":"45.7616","LAUNCH_DATE":"2019-11-11","RCS_SIZE":"LARGE","CLASSIFICATION_TYPE":"U","OBJECT_NAME":"STARLINK-1061","OBJECT_TYPE":"PAYLOAD","MEAN_ANOMALY":"288.2547","CENTER_NAME":"EARTH","MEAN_MOTION":"15.06407509","SEMIMAJOR_AXIS":"6925.326","GP_ID":"202858942","ECCENTRICITY":"0.00014170","ELEMENT_SET_NO":"999","SITE":"AFETR","EPOCH":"2022-05-06T12:06:47.140992","TLE_LINE2":"2 44766  53.0576  45.7616 0001417  71.8596 288.2547 15.06407509136703","REF_FRAME":"TEME","FILE":"3432208"}];
